{"type": "FeatureCollection", "features": [ {"type": "Feature", "properties": {"norad_id": 31735, "name": "FENGYUN 1C DEB", "group": "fengyun-1c-debris", "lat": -13.959338084170078, "lon": -82.51769281506218, "alt_km": 734.3315086404873, "timestamp": "2025-12-22T05:49:03.783561+00:00", "meta": {"OBJECT_NAME": "FENGYUN 1C DEB", "OBJECT_ID": "1999-025CEJ", "EPOCH": "2025-12-21T02:16:50.667168", "MEAN_MOTION": 14.42563546, "ECCENTRICITY": 0.00589369, "INCLINATION": 98.5802, "RA_OF_ASC_NODE": 98.479, "ARG_OF_PERICENTER": 258.8843, "MEAN_ANOMALY": 100.5716, "EPHEMERIS_TYPE": 0, "CLASSIFICATION_TYPE": "U", "NORAD_CAT_ID": 31735, "ELEMENT_SET_NO": 999, "REV_AT_EPOCH": 96785, "BSTAR": 0.00028419624, "MEAN_MOTION_DOT": 9.16e-06, "MEAN_MOTION_DDOT": 0}, "tle": {"line1": "1 31735U 99025CEJ 25355.09503087  .00000916  00000+0  28420-3 0  9990", "line2": "2 31735  98.5802  98.4790 0058936 258.8843 100.5716 14.42563546967854"}}, "geometry": {"type": "Point", "coordinates": [-82.51769281506218, -13.959338084170078]}}, {"type": "Feature", "properties": {"norad_id": 31736, "name": "FENGYUN 1C DEB", "group": "fengyun-1c-debris", "lat": -37.726268539817816, "lon": 4.666619153747977, "alt_km": 854.1304325476376, "timestamp": "2025-12-22T05:49:03.783572+00:00", "meta": {"OBJECT_NAME": "FENGYUN 1C DEB", "OBJECT_ID": "1999-025CEK", "EPOCH": "2025-12-18T20:29:32.925120", "MEAN_MOTION": 14.14187403, "ECCENTRICITY": 0.00112563, "INCLINATION": 98.678, "RA_OF_ASC_NODE": 354.5904, "ARG_OF_PERICENTER": 221.9883, "MEAN_ANOMALY": 138.0428, "EPHEMERIS_TYPE": 0, "CLASSIFICATION_TYPE": "U", "NORAD_CAT_ID": 31736, "ELEMENT_SET_NO": 999, "REV_AT_EPOCH": 64151, "BSTAR": 0.00013491285, "MEAN_MOTION_DOT": 2.15e-06, "MEAN_MOTION_DDOT": 0}, "tle": {"line1": "1 31736U 99025CEK 25352.85385330  .00000215  00000+0  13491-3 0  9995", "line2": "2 31736  98.6780 354.5904 0011256 221.9883 138.0428 14.14187403641514"}}, "geometry": {"type": "Point", "coordinates": [4.666619153747977, -37.726268539817816]}}, {"type": "Feature", "properties": {"norad_id": 31737, "name": "FENGYUN 1C DEB", "group": "fengyun-1c-debris", "lat": -53.79723515431791, "lon": 40.41938970149915, "alt_km": 591.229723575555, "timestamp": "2025-12-22T05:49:03.783582+00:00", "meta": {"OBJECT_NAME": "FENGYUN 1C DEB", "OBJECT_ID": "1999-025CEL", "EPOCH": "2025-12-20T21:54:49.279104", "MEAN_MOTION": 14.68798993, "ECCENTRICITY": 0.0148073, "INCLINATION": 97.9162, "RA_OF_ASC_NODE": 28.1733, "ARG_OF_PERICENTER": 349.636, "MEAN_ANOMALY": 132.0901, "EPHEMERIS_TYPE": 0, "CLASSIFICATION_TYPE": "U", "NORAD_CAT_ID": 31737, "ELEMENT_SET_NO": 999, "REV_AT_EPOCH": 98319, "BSTAR": 0.00039482, "MEAN_MOTION_DOT": 2.667e-05, "MEAN_MOTION_DDOT": 0}, "tle": {"line1": "1 31737U 99025CEL 25354.91307036  .00002667  00000+0  39482-3 0  9993", "line2": "2 31737  97.9162  28.1733 0148073 349.6360 132.0901 14.68798993983195"}}, "geometry": {"type": "Point", "coordinates": [40.41938970149915, -53.79723515431791]}}, {"type": "Feature", "properties": {"norad_id": 31738, "name": "FENGYUN 1C DEB", "group": "fengyun-1c-debris", "lat": -3.5068724941487504, "lon": 64.05946036314444, "alt_km": 897.1671542323375, "timestamp": "2025-12-22T05:49:03.783593+00:00", "meta": {"OBJECT_NAME": "FENGYUN 1C DEB", "OBJECT_ID": "1999-025CEM", "EPOCH": "2025-12-19T22:21:26.675136", "MEAN_MOTION": 13.85081508, "ECCENTRICITY": 0.0306955, "INCLINATION": 99.3603, "RA_OF_ASC_NODE": 61.1713, "ARG_OF_PERICENTER": 81.0657, "MEAN_ANOMALY": 282.511, "EPHEMERIS_TYPE": 0, "CLASSIFICATION_TYPE": "U", "NORAD_CAT_ID": 31738, "ELEMENT_SET_NO": 999, "REV_AT_EPOCH": 62357, "BSTAR": 0.00077972, "MEAN_MOTION_DOT": 1.232e-05, "MEAN_MOTION_DDOT": 0}, "tle": {"line1": "1 31738U 99025CEM 25353.93155874  .00001232  00000+0  77972-3 0  9999", "line2": "2 31738  99.3603  61.1713 0306955  81.0657 282.5110 13.85081508623579"}}, "geometry": {"type": "Point", "coordinates": [64.05946036314444, -3.5068724941487504]}}, {"type": "Feature", "properties": {"norad_id": 31739, "name": "FENGYUN 1C DEB", "group": "fengyun-1c-debris", "lat": 3.353778884174092, "lon": 50.93702028917865, "alt_km": 767.4777047173184, "timestamp": "2025-12-22T05:49:03.783603+00:00", "meta": {"OBJECT_NAME": "FENGYUN 1C DEB", "OBJECT_ID": "1999-025CEN", "EPOCH": "2025-12-21T09:29:52.738656", "MEAN_MOTION": 14.19221447, "ECCENTRICITY": 0.01281959, "INCLINATION": 98.7464, "RA_OF_ASC_NODE": 50.6181, "ARG_OF_PERICENTER": 53.5186, "MEAN_ANOMALY": 307.7722, "EPHEMERIS_TYPE": 0, "CLASSIFICATION_TYPE": "U", "NORAD_CAT_ID": 31739, "ELEMENT_SET_NO": 999, "REV_AT_EPOCH": 95609, "BSTAR": 8.3680758e-05, "MEAN_MOTION_DOT": 1.47e-06, "MEAN_MOTION_DDOT": 0}, "tle": {"line1": "1 31739U 99025CEN 25355.39574929  .00000147  00000+0  83681-4 0  9997", "line2": "2 31739  98.7464  50.6181 0128195  53.5186 307.7722 14.19221447956090"}}, "geometry": {"type": "Point", "coordinates": [50.93702028917865, 3.353778884174092]}}, {"type": "Feature", "properties": {"norad_id": 31740, "name": "FENGYUN 1C DEB", "group": "fengyun-1c-debris", "lat": 24.86191405829232, "lon": 164.39938266811836, "alt_km": 733.6792926012122, "timestamp": "2025-12-22T05:49:03.783613+00:00", "meta": {"OBJECT_NAME": "FENGYUN 1C DEB", "OBJECT_ID": "1999-025CEP", "EPOCH": "2025-12-14T23:34:19.860384", "MEAN_MOTION": 14.42186075, "ECCENTRICITY": 0.00242908, "INCLINATION": 99.8218, "RA_OF_ASC_NODE": 160.6587, "ARG_OF_PERICENTER": 61.8964, "MEAN_ANOMALY": 89.7364, "EPHEMERIS_TYPE": 0, "CLASSIFICATION_TYPE": "U", "NORAD_CAT_ID": 31740, "ELEMENT_SET_NO": 999, "REV_AT_EPOCH": 65107, "BSTAR": 0.00089360339, "MEAN_MOTION_DOT": 2.898e-05, "MEAN_MOTION_DDOT": 0}, "tle": {"line1": "1 31740U 99025CEP 25348.98217431  .00002898  00000+0  89360-3 0  9992", "line2": "2 31740  99.8218 160.6587 0024290  61.8964  89.7364 14.42186075651072"}}, "geometry": {"type": "Point", "coordinates": [164.39938266811836, 24.86191405829232]}}, {"type": "Feature", "properties": {"norad_id": 31742, "name": "FENGYUN 1C DEB", "group": "fengyun-1c-debris", "lat": 45.64912039567702, "lon": -152.8017187774837, "alt_km": 768.7909825492097, "timestamp": "2025-12-22T05:49:03.783623+00:00", "meta": {"OBJECT_NAME": "FENGYUN 1C DEB", "OBJECT_ID": "1999-025CER", "EPOCH": "2025-12-20T20:14:50.442432", "MEAN_MOTION": 14.39825178, "ECCENTRICITY": 0.00761534, "INCLINATION": 98.9191, "RA_OF_ASC_NODE": 214.9865, "ARG_OF_PERICENTER": 305.5441, "MEAN_ANOMALY": 53.8661, "EPHEMERIS_TYPE": 0, "CLASSIFICATION_TYPE": "U", "NORAD_CAT_ID": 31742, "ELEMENT_SET_NO": 999, "REV_AT_EPOCH": 96766, "BSTAR": 0.00042041595, "MEAN_MOTION_DOT": 1.315e-05, "MEAN_MOTION_DDOT": 0}, "tle": {"line1": "1 31742U 99025CER 25354.84363938  .00001315  00000+0  42042-3 0  9999", "line2": "2 31742  98.9191 214.9865 0076153 305.5441  53.8661 14.39825178967666"}}, "geometry": {"type": "Point", "coordinates": [-152.8017187774837, 45.64912039567702]}}, {"type": "Feature", "properties": {"norad_id": 31743, "name": "FENGYUN 1C DEB", "group": "fengyun-1c-debris", "lat": -18.491632316918157, "lon": 101.56809197805455, "alt_km": 765.6224434211417, "timestamp": "2025-12-22T05:49:03.783634+00:00", "meta": {"OBJECT_NAME": "FENGYUN 1C DEB", "OBJECT_ID": "1999-025CES", "EPOCH": "2025-12-19T07:08:16.584288", "MEAN_MOTION": 14.31339819, "ECCENTRICITY": 0.0037408, "INCLINATION": 99.1437, "RA_OF_ASC_NODE": 281.5575, "ARG_OF_PERICENTER": 199.3916, "MEAN_ANOMALY": 312.6055, "EPHEMERIS_TYPE": 0, "CLASSIFICATION_TYPE": "U", "NORAD_CAT_ID": 31743, "ELEMENT_SET_NO": 999, "REV_AT_EPOCH": 95734, "BSTAR": 0.00096288, "MEAN_MOTION_DOT": 2.522e-05, "MEAN_MOTION_DDOT": 0}, "tle": {"line1": "1 31743U 99025CES 25353.29741417  .00002522  00000+0  96288-3 0  9992", "line2": "2 31743  99.1437 281.5575 0037408 199.3916 312.6055 14.31339819957348"}}, "geometry": {"type": "Point", "coordinates": [101.56809197805455, -18.491632316918157]}}, {"type": "Feature", "properties": {"norad_id": 31744, "name": "FENGYUN 1C DEB", "group": "fengyun-1c-debris", "lat": 8.991615739766292, "lon": 106.17445637174622, "alt_km": 613.3531579718829, "timestamp": "2025-12-22T05:49:03.783644+00:00", "meta": {"OBJECT_NAME": "FENGYUN 1C DEB", "OBJECT_ID": "1999-025CET", "EPOCH": "2025-12-17T13:54:12.794400", "MEAN_MOTION": 14.16604274, "ECCENTRICITY": 0.03151073, "INCLINATION": 99.3037, "RA_OF_ASC_NODE": 102.7793, "ARG_OF_PERICENTER": 30.7507, "MEAN_ANOMALY": 331.1716, "EPHEMERIS_TYPE": 0, "CLASSIFICATION_TYPE": "U", "NORAD_CAT_ID": 31744, "ELEMENT_SET_NO": 999, "REV_AT_EPOCH": 94683, "BSTAR": 0.00098574439, "MEAN_MOTION_DOT": 3.146e-05, "MEAN_MOTION_DDOT": 0}, "tle": {"line1": "1 31744U 99025CET 25351.57931475  .00003146  00000+0  98574-3 0  9990", "line2": "2 31744  99.3037 102.7793 0315107  30.7507 331.1716 14.16604274946837"}}, "geometry": {"type": "Point", "coordinates": [106.17445637174622, 8.991615739766292]}}, {"type": "Feature", "properties": {"norad_id": 31746, "name": "FENGYUN 1C DEB", "group": "fengyun-1c-debris", "lat": -15.420124881655612, "lon": 121.81613538402772, "alt_km": 658.6675620581882, "timestamp": "2025-12-22T05:49:03.783654+00:00", "meta": {"OBJECT_NAME": "FENGYUN 1C DEB", "OBJECT_ID": "1999-025CEV", "EPOCH": "2025-12-18T07:35:38.116032", "MEAN_MOTION": 14.77023131, "ECCENTRICITY": 0.00230437, "INCLINATION": 98.5884, "RA_OF_ASC_NODE": 115.2503, "ARG_OF_PERICENTER": 190.3404, "MEAN_ANOMALY": 169.7333, "EPHEMERIS_TYPE": 0, "CLASSIFICATION_TYPE": "U", "NORAD_CAT_ID": 31746, "ELEMENT_SET_NO": 999, "REV_AT_EPOCH": 97110, "BSTAR": 0.0030928277, "MEAN_MOTION_DOT": 0.00021911, "MEAN_MOTION_DDOT": 0}, "tle": {"line1": "1 31746U 99025CEV 25352.31641338  .00021911  00000+0  30928-2 0  9999", "line2": "2 31746  98.5884 115.2503 0023043 190.3404 169.7333 14.77023131971104"}}, "geometry": {"type": "Point", "coordinates": [121.81613538402772, -15.420124881655612]}}]}